STARLINK-30979          
1 58485U 23186N   26062.14900476 -.00003217  00000+0 -10743-3 0  9999
2 58485  43.0020 100.7755 0001072 241.7105 118.3638 15.27583998124886
STARLINK-31005          
1 58486U 23186P   26062.07592537  .00005037  00000+0  19713-3 0  9993
2 58486  42.9969 101.0851 0000842 263.1446  96.9310 15.26773863124876
STARLINK-30987          
1 58487U 23186Q   26062.08097644  .00035118  00000+0  12876-2 0  9999
2 58487  42.9989 101.1220 0000746 191.6592 168.4242 15.27376065124873
STARLINK-31000          
1 58488U 23186R   26062.13487196  .00031024  00000+0  11370-2 0  9991
2 58488  42.9972 100.6668 0001179 254.7549 105.3172 15.27439793124881
STARLINK-30993          
1 58489U 23186S   26062.20413013  .00111305  00000+0  40070-2 0  9997
2 58489  43.0024 100.3298 0001696 267.6068  92.4589 15.27470147124898
STARLINK-30978          
1 58490U 23186T   26062.12664993  .00001880  00000+0  79732-4 0  9990
2 58490  42.9980 100.6075 0000574 248.8669 111.2121 15.26742210124880
STARLINK-30953          
1 58491U 23186U   26062.04285414 -.00001296  00000+0 -37549-4 0  9992
2 58491  43.0063 305.0345 0001942 263.9755  96.0876 15.27583773126876
STARLINK-30986          
1 58492U 23186V   26062.18595535  .00001934  00000+0  81763-4 0  9990
2 58492  42.9974 100.1909 0001930 290.2419  69.8225 15.26740034124893
STARLINK-30985          
1 58493U 23186W   26062.17838627  .00097132  00000+0  35236-2 0  9999
2 58493  42.9963 100.1324 0001075 201.8196 158.2610 15.27293587124891
STARLINK-30981          
1 58494U 23186X   26062.17884067 -.00120472  00000+0 -45223-2 0  9992
2 58494  43.0012 100.1398 0001798 257.0450 103.0200 15.26975938124897
STARLINK-31002          
1 58495U 23186Y   26062.08750288  .00148487  00000+0  53469-2 0  9995
2 58495  42.9985 101.1629 0001739 261.5165  98.5490 15.27276081125042
STARLINK-31026          
1 58508U 23191A   26061.54261504  .00000669  00000+0  64607-4 0  9991
2 58508  43.0022 145.8947 0001083 276.2939  83.7780 15.02535528124351
STARLINK-31020          
1 58509U 23191B   26062.20418046 -.00000499  00000+0 -21896-4 0  9997
2 58509  43.0020 143.1082 0001680 269.3472  90.7178 15.02537532124445
STARLINK-30989          
1 58510U 23191C   26062.16668981  .00065381  00000+0  24273-2 0  9998
2 58510  43.0001 140.5035 0000969 248.5222  18.5407 15.26716374  5626
STARLINK-30968          
1 58511U 23191D   26062.16668981  .00050014  00000+0  18619-2 0  9993
2 58511  43.0001 140.5591 0001021 264.1263 338.8798 15.26734932  5679
STARLINK-30982          
1 58512U 23191E   26062.16668981  .00042333  00000+0  15796-2 0  9992
2 58512  43.0003 140.6064 0000998 252.7210 328.7916 15.26723624  5671
