[{"OBJECT_NAME":"STARLINK-30979","OBJECT_ID":"2023-186N","EPOCH":"2026-03-03T03:34:34.011264","MEAN_MOTION":15.27583998,"ECCENTRICITY":0.0001072,"INCLINATION":43.002,"RA_OF_ASC_NODE":100.7755,"ARG_OF_PERICENTER":241.7105,"MEAN_ANOMALY":118.3638,"EPHEMERIS_TYPE":0,"CLASSIFICATION_TYPE":"U","NORAD_CAT_ID":58485,"ELEMENT_SET_NO":999,"REV_AT_EPOCH":12488,"BSTAR":-0.00010743,"MEAN_MOTION_DOT":-3.217e-5,"MEAN_MOTION_DDOT":0},{"OBJECT_NAME":"STARLINK-31005","OBJECT_ID":"2023-186P","EPOCH":"2026-03-03T01:49:19.951968","MEAN_MOTION":15.26773863,"ECCENTRICITY":8.42e-5,"INCLINATION":42.9969,"RA_OF_ASC_NODE":101.0851,"ARG_OF_PERICENTER":263.1446,"MEAN_ANOMALY":96.931,"EPHEMERIS_TYPE":0,"CLASSIFICATION_TYPE":"U","NORAD_CAT_ID":58486,"ELEMENT_SET_NO":999,"REV_AT_EPOCH":12487,"BSTAR":0.00019713,"MEAN_MOTION_DOT":5.037e-5,"MEAN_MOTION_DDOT":0},{"OBJECT_NAME":"STARLINK-30987","OBJECT_ID":"2023-186Q","EPOCH":"2026-03-03T01:56:36.364416","MEAN_MOTION":15.27376065,"ECCENTRICITY":7.46e-5,"INCLINATION":42.9989,"RA_OF_ASC_NODE":101.122,"ARG_OF_PERICENTER":191.6592,"MEAN_ANOMALY":168.4242,"EPHEMERIS_TYPE":0,"CLASSIFICATION_TYPE":"U","NORAD_CAT_ID":58487,"ELEMENT_SET_NO":999,"REV_AT_EPOCH":12487,"BSTAR":0.0012876,"MEAN_MOTION_DOT":0.00035118,"MEAN_MOTION_DDOT":0},{"OBJECT_NAME":"STARLINK-31000","OBJECT_ID":"2023-186R","EPOCH":"2026-03-03T03:14:12.937344","MEAN_MOTION":15.27439793,"ECCENTRICITY":0.0001179,"INCLINATION":42.9972,"RA_OF_ASC_NODE":100.6668,"ARG_OF_PERICENTER":254.7549,"MEAN_ANOMALY":105.3172,"EPHEMERIS_TYPE":0,"CLASSIFICATION_TYPE":"U","NORAD_CAT_ID":58488,"ELEMENT_SET_NO":999,"REV_AT_EPOCH":12488,"BSTAR":0.001137,"MEAN_MOTION_DOT":0.00031024,"MEAN_MOTION_DDOT":0},{"OBJECT_NAME":"STARLINK-30993","OBJECT_ID":"2023-186S","EPOCH":"2026-03-03T04:53:56.843232","MEAN_MOTION":15.27470147,"ECCENTRICITY":0.0001696,"INCLINATION":43.0024,"RA_OF_ASC_NODE":100.3298,"ARG_OF_PERICENTER":267.6068,"MEAN_ANOMALY":92.4589,"EPHEMERIS_TYPE":0,"CLASSIFICATION_TYPE":"U","NORAD_CAT_ID":58489,"ELEMENT_SET_NO":999,"REV_AT_EPOCH":12489,"BSTAR":0.004007,"MEAN_MOTION_DOT":0.00111305,"MEAN_MOTION_DDOT":0},{"OBJECT_NAME":"STARLINK-30978","OBJECT_ID":"2023-186T","EPOCH":"2026-03-03T03:02:22.553952","MEAN_MOTION":15.2674221,"ECCENTRICITY":5.74e-5,"INCLINATION":42.998,"RA_OF_ASC_NODE":100.6075,"ARG_OF_PERICENTER":248.8669,"MEAN_ANOMALY":111.2121,"EPHEMERIS_TYPE":0,"CLASSIFICATION_TYPE":"U","NORAD_CAT_ID":58490,"ELEMENT_SET_NO":999,"REV_AT_EPOCH":12488,"BSTAR":7.9732e-5,"MEAN_MOTION_DOT":1.88e-5,"MEAN_MOTION_DDOT":0},{"OBJECT_NAME":"STARLINK-30953","OBJECT_ID":"2023-186U","EPOCH":"2026-03-03T01:01:42.597696","MEAN_MOTION":15.27583773,"ECCENTRICITY":0.0001942,"INCLINATION":43.0063,"RA_OF_ASC_NODE":305.0345,"ARG_OF_PERICENTER":263.9755,"MEAN_ANOMALY":96.0876,"EPHEMERIS_TYPE":0,"CLASSIFICATION_TYPE":"U","NORAD_CAT_ID":58491,"ELEMENT_SET_NO":999,"REV_AT_EPOCH":12687,"BSTAR":-3.7549e-5,"MEAN_MOTION_DOT":-1.296e-5,"MEAN_MOTION_DDOT":0},{"OBJECT_NAME":"STARLINK-30986","OBJECT_ID":"2023-186V","EPOCH":"2026-03-03T04:27:46.542240","MEAN_MOTION":15.26740034,"ECCENTRICITY":0.000193,"INCLINATION":42.9974,"RA_OF_ASC_NODE":100.1909,"ARG_OF_PERICENTER":290.2419,"MEAN_ANOMALY":69.8225,"EPHEMERIS_TYPE":0,"CLASSIFICATION_TYPE":"U","NORAD_CAT_ID":58492,"ELEMENT_SET_NO":999,"REV_AT_EPOCH":12489,"BSTAR":8.1763e-5,"MEAN_MOTION_DOT":1.934e-5,"MEAN_MOTION_DDOT":0},{"OBJECT_NAME":"STARLINK-30985","OBJECT_ID":"2023-186W","EPOCH":"2026-03-03T04:16:52.573728","MEAN_MOTION":15.27293587,"ECCENTRICITY":0.0001075,"INCLINATION":42.9963,"RA_OF_ASC_NODE":100.1324,"ARG_OF_PERICENTER":201.8196,"MEAN_ANOMALY":158.261,"EPHEMERIS_TYPE":0,"CLASSIFICATION_TYPE":"U","NORAD_CAT_ID":58493,"ELEMENT_SET_NO":999,"REV_AT_EPOCH":12489,"BSTAR":0.0035236,"MEAN_MOTION_DOT":0.00097132,"MEAN_MOTION_DDOT":0},{"OBJECT_NAME":"STARLINK-30981","OBJECT_ID":"2023-186X","EPOCH":"2026-03-03T04:17:31.833888","MEAN_MOTION":15.26975938,"ECCENTRICITY":0.0001798,"INCLINATION":43.0012,"RA_OF_ASC_NODE":100.1398,"ARG_OF_PERICENTER":257.045,"MEAN_ANOMALY":103.02,"EPHEMERIS_TYPE":0,"CLASSIFICATION_TYPE":"U","NORAD_CAT_ID":58494,"ELEMENT_SET_NO":999,"REV_AT_EPOCH":12489,"BSTAR":-0.0045223,"MEAN_MOTION_DOT":-0.00120472,"MEAN_MOTION_DDOT":0},{"OBJECT_NAME":"STARLINK-31002","OBJECT_ID":"2023-186Y","EPOCH":"2026-03-03T02:06:00.248832","MEAN_MOTION":15.27276081,"ECCENTRICITY":0.0001739,"INCLINATION":42.9985,"RA_OF_ASC_NODE":101.1629,"ARG_OF_PERICENTER":261.5165,"MEAN_ANOMALY":98.549,"EPHEMERIS_TYPE":0,"CLASSIFICATION_TYPE":"U","NORAD_CAT_ID":58495,"ELEMENT_SET_NO":999,"REV_AT_EPOCH":12504,"BSTAR":0.0053469,"MEAN_MOTION_DOT":0.00148487,"MEAN_MOTION_DDOT":0},{"OBJECT_NAME":"STARLINK-31026","OBJECT_ID":"2023-191A","EPOCH":"2026-03-02T13:01:21.939456","MEAN_MOTION":15.02535528,"ECCENTRICITY":0.00010839,"INCLINATION":43.0022,"RA_OF_ASC_NODE":145.8947,"ARG_OF_PERICENTER":276.2939,"MEAN_ANOMALY":83.778,"EPHEMERIS_TYPE":0,"CLASSIFICATION_TYPE":"U","NORAD_CAT_ID":58508,"ELEMENT_SET_NO":999,"REV_AT_EPOCH":12435,"BSTAR":6.4607415e-5,"MEAN_MOTION_DOT":6.69e-6,"MEAN_MOTION_DDOT":0},{"OBJECT_NAME":"STARLINK-31020","OBJECT_ID":"2023-191B","EPOCH":"2026-03-03T04:54:01.191744","MEAN_MOTION":15.02537532,"ECCENTRICITY":0.000168,"INCLINATION":43.002,"RA_OF_ASC_NODE":143.1082,"ARG_OF_PERICENTER":269.3472,"MEAN_ANOMALY":90.7178,"EPHEMERIS_TYPE":0,"CLASSIFICATION_TYPE":"U","NORAD_CAT_ID":58509,"ELEMENT_SET_NO":999,"REV_AT_EPOCH":12444,"BSTAR":-2.1896e-5,"MEAN_MOTION_DOT":-4.99e-6,"MEAN_MOTION_DDOT":0},{"OBJECT_NAME":"STARLINK-30989","OBJECT_ID":"2023-191C","EPOCH":"2026-03-03T04:00:01.999584","MEAN_MOTION":15.26716374,"ECCENTRICITY":9.69e-5,"INCLINATION":43.0001,"RA_OF_ASC_NODE":140.5035,"ARG_OF_PERICENTER":248.5222,"MEAN_ANOMALY":18.5407,"EPHEMERIS_TYPE":0,"CLASSIFICATION_TYPE":"U","NORAD_CAT_ID":58510,"ELEMENT_SET_NO":999,"REV_AT_EPOCH":562,"BSTAR":0.0024273,"MEAN_MOTION_DOT":0.00065381,"MEAN_MOTION_DDOT":0},{"OBJECT_NAME":"STARLINK-30968","OBJECT_ID":"2023-191D","EPOCH":"2026-03-03T04:00:01.999584","MEAN_MOTION":15.26734932,"ECCENTRICITY":0.0001021,"INCLINATION":43.0001,"RA_OF_ASC_NODE":140.5591,"ARG_OF_PERICENTER":264.1263,"MEAN_ANOMALY":338.8798,"EPHEMERIS_TYPE":0,"CLASSIFICATION_TYPE":"U","NORAD_CAT_ID":58511,"ELEMENT_SET_NO":999,"REV_AT_EPOCH":567,"BSTAR":0.0018619,"MEAN_MOTION_DOT":0.00050014,"MEAN_MOTION_DDOT":0},{"OBJECT_NAME":"STARLINK-30982","OBJECT_ID":"2023-191E","EPOCH":"2026-03-03T04:00:01.999584","MEAN_MOTION":15.26723624,"ECCENTRICITY":9.98e-5,"INCLINATION":43.0003,"RA_OF_ASC_NODE":140.6064,"ARG_OF_PERICENTER":252.721,"MEAN_ANOMALY":328.7916,"EPHEMERIS_TYPE":0,"CLASSIFICATION_TYPE":"U","NORAD_CAT_ID":58512,"ELEMENT_SET_NO":999,"REV_AT_EPOCH":567,"BSTAR":0.0015796,"MEAN_MOTION_DOT":0.00042333,"MEAN_MOTION_DDOT":0}]
